STARLINK-36709          
1 67969U 26038J   26080.50001157 -.02278447  00000+0 -38381-1 0  9990
2 67969  97.2850  91.3521 0001199 101.0015 251.2402 15.55181119  5108
STARLINK-36319          
1 67970U 26038K   26080.50001157 -.00312351  00000+0 -59447-2 0  9990
2 67970  97.2852  91.3126 0000931 107.8800 152.0281 15.49320739  5077
STARLINK-36710          
1 67971U 26038L   26080.50001157 -.02274386  00000+0 -36992-1 0  9997
2 67971  97.2854  91.3616 0001490  74.9089 300.3951 15.56117457  5103
STARLINK-36894          
1 67972U 26038M   26080.50001157 -.02222728  00000+0 -35571-1 0  9993
2 67972  97.2851  91.3706 0001364  98.7218 287.5999 15.56471230  5109
STARLINK-36900          
1 67973U 26038N   26080.50001157 -.00329361  00000+0 -62655-2 0  9997
2 67973  97.2853  91.2451 0001148 105.9900 351.6675 15.49394442  5102
STARLINK-36901          
1 67974U 26038P   26080.50001157 -.02278185  00000+0 -36419-1 0  9995
2 67974  97.2852  91.3695 0001543  76.7958 316.7593 15.56586509  5106
STARLINK-36883          
1 67975U 26038Q   26080.50001157 -.02192277  00000+0 -40070-1 0  9991
2 67975  97.2855  91.3659 0001710  96.7983 278.3175 15.52806500  5107
STARLINK-36880          
1 67976U 26038R   26080.50001157 -.00067230  00000+0 -12443-2 0  9994
2 67976  97.2857  91.2204 0001692  94.9855 302.5049 15.49203953  5101
STARLINK-36904          
1 67977U 26038S   26080.50001157 -.02208627  00000+0 -40642-1 0  9995
2 67977  97.2855  91.3586 0001705 101.1169 263.3665 15.52647327  5107
STARLINK-36364          
1 67978U 26038T   26080.50001157 -.02306766  00000+0 -34057-1 0  9992
2 67978  97.2852  91.4038 0001862  87.3352  24.8245 15.58738925  5106
STARLINK-36359          
1 67979U 26038U   26080.50001157 -.02240154  00000+0 -38456-1 0  9998
2 67979  97.2850  91.3700 0001345  98.2792 287.9129 15.54605342  5100
STARLINK-36882          
1 67980U 26038V   26080.50001157 -.02121097  00000+0 -39862-1 0  9996
2 67980  97.2856  91.3610 0001454  94.7752 273.9647 15.51923131  5102
STARLINK-36874          
1 67981U 26038W   26080.50001157 -.02306073  00000+0 -33387-1 0  9992
2 67981  97.2849  91.4079 0001798  81.7953  42.2856 15.59252575  5109
STARLINK-36879          
1 67982U 26038X   26080.50001157 -.00111891  00000+0 -20821-2 0  9993
2 67982  97.2858  91.2567 0001305 116.0020  10.3084 15.49228761  5109
STARLINK-36867          
1 67983U 26038Y   26080.50001157 -.00116870  00000+0 -21760-2 0  9999
2 67983  97.2855  91.2897 0001506  90.2357 110.0841 15.49230146  5101
STARLINK-36266          
1 67984U 26038Z   26080.50001157 -.02301788  00000+0 -32720-1 0  9993
2 67984  97.2852  91.4166 0001921  92.4332  52.9105 15.59723442  5078
STARLINK-36802          
1 67985U 26038AA  26080.58396466  .00177654  00000+0  11630-2 0  9999
2 67985  97.2889  91.5359 0001935 152.6346 207.5022 15.75274763  5063
STARLINK-36535          
1 67986U 26039A   26080.50001157 -.01935874  00000+0 -34161-1 0  9995
2 67986  42.9994 343.4824 0001314 258.7434 160.0384 15.52634986  4774
STARLINK-36744          
1 67987U 26039B   26080.50001157 -.01894620  00000+0 -32241-1 0  9996
2 67987  42.9993 343.3818 0001568 266.8357 192.4364 15.54095992  4778
STARLINK-36734          
1 67988U 26039C   26080.43793734  .00126524  00000+0  21224-2 0  9996
2 67988  42.9987 344.9118 0001590 273.9499  86.1180 15.50651057  3470
STARLINK-36957          
1 67989U 26039D   26080.50001157 -.01752579  00000+0 -30840-1 0  9997
2 67989  42.9998 343.4283 0001396 259.9819 179.8852 15.52913928  4774
STARLINK-36951          
1 67990U 26039E   26080.50001157 -.00088318  00000+0 -15161-2 0  9991
2 67990  42.9995 343.6785 0001548 258.3129  79.8751 15.50588423  4771
STARLINK-36941          
1 67991U 26039F   26080.43732700  .00093344  00000+0  15745-2 0  9990
2 67991  42.9983 344.9050 0000755 296.5561  63.5221 15.50641321  3476
STARLINK-36950          
1 67992U 26039G   26080.50001157 -.00246484  00000+0 -43080-2 0  9994
2 67992  43.0001 344.1606 0001784 268.7756 234.3264 15.50714756  4771
STARLINK-36975          
1 67993U 26039H   26080.50001157 -.00232462  00000+0 -40596-2 0  9995
2 67993  43.0000 344.0634 0001567 265.7625 276.6623 15.50686952  4776
STARLINK-36993          
1 67994U 26039J   26080.50001157 -.01665150  00000+0 -28942-1 0  9991
2 67994  42.9997 343.3624 0001847 265.4792 200.7935 15.53081478  4773
STARLINK-36968          
1 67995U 26039K   26080.50001157 -.00246044  00000+0 -43030-2 0  9994
2 67995  43.0001 344.2635 0001574 260.2085 201.0970 15.50696225  4771
STARLINK-36979          
1 67996U 26039L   26080.50001157 -.01902386  00000+0 -31622-1 0  9997
2 67996  42.9998 343.2564 0001534 263.6105 245.2067 15.54744874  4776
STARLINK-36994          
1 67997U 26039M   26080.50001157 -.00109904  00000+0 -18918-2 0  9996
2 67997  42.9998 343.5998 0002021 256.3357 112.6105 15.50608204  4773
STARLINK-36988          
1 67998U 26039N   26080.50001157 -.00075751  00000+0 -12974-2 0  9995
2 67998  42.9999 343.5423 0001581 242.2917 150.4043 15.50588884  4776
